NORAD_CAT_ID,OBJECT_NAME,OBJECT_TYPE,EPOCH,MEAN_MOTION,ECCENTRICITY,INCLINATION,RA_OF_ASC_NODE,ARG_OF_PERICENTER,MEAN_ANOMALY,BSTAR,MEAN_MOTION_DOT,MEAN_MOTION_DDOT,TLE_LINE0,TLE_LINE1,TLE_LINE2,SEMIMAJOR_AXIS,PERIOD,APOGEE,PERIGEE,DECAYED
51720.0,STARLINK-3526,PAYLOAD,2022-07-18 16:00:00,15.08841546,0.0002352,53.2146,179.8203,46.7309,204.5201,-0.0021976,-0.00035096,0.0,0 STARLINK-3526,1 51720U 22016G   22199.66667824 -.00035096  00000-0 -21976-2 0  9996,2 51720  53.2146 179.8203 0002352  46.7309 204.5201 15.08841546 23695,6917.876,95.437,541.368,538.114,0.0
51720.0,STARLINK-3526,PAYLOAD,2022-07-18 22:00:00,15.08818944,0.0002311,53.2147,178.6975,50.3971,119.5419,0.001684,0.000266,0.0,0 STARLINK-3526,1 51720U 22016G   22199.91667824  .00026600  00000-0  16840-2 0  9997,2 51720  53.2147 178.6975 0002311  50.3971 119.5419 15.08818944  1306,6917.945,95.439,541.408,538.211,0.0
51720.0,STARLINK-3526,PAYLOAD,2022-07-19 06:00:00,15.08831115,0.0002501,53.2147,177.2029,46.8445,134.6833,0.00018673,2.684e-05,0.0,0 STARLINK-3526,1 51720U 22016G   22200.25001157  .00002684  00000-0  18673-3 0  9991,2 51720  53.2147 177.2029 0002501  46.8445 134.6833 15.08831115 23787,6917.908,95.438,541.503,538.0419999999998,0.0
51720.0,STARLINK-3526,PAYLOAD,2022-07-19 14:00:01,15.08857361,0.0002424,53.2146,175.7057,47.3083,145.8018,-0.0017723,-0.00028399,0.0,0 STARLINK-3526,1 51720U 22016G   22200.58334491 -.00028399  00000-0 -17723-2 0  9994,2 51720  53.2146 175.7057 0002424  47.3083 145.8018 15.08857361  1302,6917.8269999999975,95.436,541.369,538.015,0.0
51720.0,STARLINK-3526,PAYLOAD,2022-07-19 22:00:00,15.088938699999998,0.0002284,53.216,174.2072,50.7193,153.9747,-0.0091923,-0.00143896,0.0,0 STARLINK-3526,1 51720U 22016G   22200.91667824 -.00143896  00000-0 -91923-2 0  9994,2 51720  53.2160 174.2072 0002284  50.7193 153.9747 15.08893870  1307,6917.715999999999,95.434,541.161,538.001,0.0
51720.0,STARLINK-3526,PAYLOAD,2022-07-20 14:00:01,15.08857807,0.0002340999999999,53.2146,171.2165,47.8296,180.0169,-0.0017003,-0.00027261,0.0,0 STARLINK-3526,1 51720U 22016G   22201.58334491 -.00027261  00000-0 -17003-2 0  9993,2 51720  53.2146 171.2165 0002341  47.8296 180.0169 15.08857807  1305,6917.826,95.436,541.31,538.071,0.0
51720.0,STARLINK-3526,PAYLOAD,2022-07-20 22:00:01,15.08851634,0.0002237,53.2148,169.7194,52.614,186.8915,1.764e-05,-8e-08,0.0,0 STARLINK-3526,1 51720U 22016G   22201.91668981 -.00000008  00000-0  17640-4 0  9992,2 51720  53.2148 169.7194 0002237  52.6140 186.8915 15.08851634  1302,6917.845,95.437,541.257,538.1619999999998,0.0
51720.0,STARLINK-3526,PAYLOAD,2022-07-21 08:00:01,15.08806515,0.0002369,53.2145,167.8507,46.1904,297.7695,0.0029018,0.00046155,0.0,0 STARLINK-3526,1 51720U 22016G   22202.33334491  .00046155  00000-0  29018-2 0  9997,2 51720  53.2145 167.8507 0002369  46.1904 297.7695 15.08806515 24094,6917.983,95.44,541.487,538.2090000000002,0.0
51720.0,STARLINK-3526,PAYLOAD,2022-07-21 14:00:01,15.08844365,0.0002255999999999,53.2143,166.7271,48.2236,214.4703,-0.0018884,-0.00030221,0.0,0 STARLINK-3526,1 51720U 22016G   22202.58335648 -.00030221  00000-0 -18884-2 0  9997,2 51720  53.2143 166.7271 0002256  48.2236 214.4703 15.08844365  1304,6917.8669999999975,95.437,541.293,538.1709999999998,0.0
51720.0,STARLINK-3526,PAYLOAD,2022-07-21 22:00:00,15.08836522,0.0002188,53.2143,165.2303,53.4323,220.7819,0.00086471,0.00013499,0.0,0 STARLINK-3526,1 51720U 22016G   22202.91667824  .00013499  00000-0  86471-3 0  9992,2 51720  53.2143 165.2303 0002188  53.4323 220.7819 15.08836522 24188,6917.891,95.438,541.27,538.242,0.0
51720.0,STARLINK-3526,PAYLOAD,2022-07-22 06:00:00,15.08830722,0.0002381999999999,53.2141,163.7356,49.0747,236.7419,0.0015208,0.00023993,0.0,0 STARLINK-3526,1 51720U 22016G   22203.25001157  .00023993  00000-0  15208-2 0  9990,2 51720  53.2141 163.7356 0002382  49.0747 236.7419 15.08830722  1302,6917.909000000002,95.438,541.422,538.126,0.0
51720.0,STARLINK-3526,PAYLOAD,2022-07-22 22:00:00,15.08875676,0.0002176,53.2138,160.741,55.3122,253.7049,-0.0019809,-0.00031708,0.0,0 STARLINK-3526,1 51720U 22016G   22203.91667824 -.00031708  00000-0 -19809-2 0  9998,2 51720  53.2138 160.7410 0002176  55.3122 253.7049 15.08875676  1309,6917.771,95.435,541.1419999999998,538.131,0.0
51720.0,STARLINK-3526,PAYLOAD,2022-07-23 08:00:01,15.08826361,0.000227,53.2134,158.8723,47.315,6.2238,0.00021132,3.075e-05,0.0,0 STARLINK-3526,1 51720U 22016G   22204.33334491  .00003075  00000-0  21132-3 0  9993,2 51720  53.2134 158.8723 0002270  47.3150   6.2238 15.08826361 24401,6917.922,95.438,541.357,538.217,0.0
51720.0,STARLINK-3526,PAYLOAD,2022-07-23 14:00:01,15.08828492,0.000215,53.2134,157.7485,49.7903,282.4999,-0.0020524,-0.00032795,0.0,0 STARLINK-3526,1 51720U 22016G   22204.58335648 -.00032795  00000-0 -20524-2 0  9991,2 51720  53.2134 157.7485 0002150  49.7903 282.4999 15.08828492  1306,6917.916,95.438,541.268,538.293,0.0
51720.0,STARLINK-3526,PAYLOAD,2022-07-23 22:00:00,15.08828217,0.0002110999999999,53.2135,156.2518,53.61,290.1847,0.00026866,3.989e-05,0.0,0 STARLINK-3526,1 51720U 22016G   22204.91667824  .00003989  00000-0  26866-3 0  9999,2 51720  53.2135 156.2518 0002111  53.6100 290.1847 15.08828217  1301,6917.916,95.438,541.242,538.321,0.0
51720.0,STARLINK-3526,PAYLOAD,2022-07-24 14:00:01,15.08836557,0.0002204,53.2135,153.2591,51.0576,315.8936,-0.00075395,-0.00012267,0.0,0 STARLINK-3526,1 51720U 22016G   22205.58334491 -.00012267  00000-0 -75395-3 0  9996,2 51720  53.2135 153.2591 0002204  51.0576 315.8936 15.08836557 24586,6917.891,95.438,541.281,538.231,0.0
51720.0,STARLINK-3526,PAYLOAD,2022-07-24 22:00:00,15.08847187,0.0002223,53.2138,151.7626,54.44,324.0913,-0.00026344,-4.48e-05,0.0,0 STARLINK-3526,1 51720U 22016G   22205.91667824 -.00004480  00000-0 -26344-3 0  9990,2 51720  53.2138 151.7626 0002223  54.4400 324.0913 15.08847187  1308,6917.858,95.437,541.261,538.186,0.0
51720.0,STARLINK-3526,PAYLOAD,2022-07-25 06:00:00,15.08822213,0.0002405,53.2139,150.2678,50.2187,339.9185,0.0025476999999999,0.00040473,0.0,0 STARLINK-3526,1 51720U 22016G   22206.25001157  .00040473  00000-0  25477-2 0  9994,2 51720  53.2139 150.2678 0002405  50.2187 339.9185 15.08822213 24694,6917.935,95.439,541.464,538.136,0.0
51720.0,STARLINK-3526,PAYLOAD,2022-07-25 14:00:01,15.08854065,0.0002269,53.2141,148.7697,52.3841,349.3465,-0.0011403,-0.00018398,0.0,0 STARLINK-3526,1 51720U 22016G   22206.58334491 -.00018398  00000-0 -11403-2 0  9997,2 51720  53.2141 148.7697 0002269  52.3841 349.3465 15.08854065  1307,6917.837,95.437,541.2719999999998,538.133,0.0
51720.0,STARLINK-3526,PAYLOAD,2022-07-25 22:00:00,15.08854948,0.0002263,53.2144,147.2733,54.3636,358.9689,-0.0021641,-0.0003458,0.0,0 STARLINK-3526,1 51720U 22016G   22206.91667824 -.00034580  00000-0 -21641-2 0  9999,2 51720  53.2144 147.2733 0002263  54.3636 358.9689 15.08854948 24795,6917.835,95.437,541.265,538.134,0.0
51720.0,STARLINK-3526,PAYLOAD,2022-07-26 06:00:00,15.08747004,0.0001937,53.2152,145.7788,46.8191,18.0201,0.008195,0.00132257,0.0,0 STARLINK-3526,1 51720U 22016G   22207.25001157  .00132257  00000-0  81950-2 0  9995,2 51720  53.2152 145.7788 0001937  46.8191  18.0201 15.08747004 24840,6918.165,95.443,541.37,538.69,0.0
51720.0,STARLINK-3526,PAYLOAD,2022-07-26 14:00:01,15.08830805,0.0001665,53.2149,144.2807,46.7578,29.6298,0.00024255,3.573e-05,0.0,0 STARLINK-3526,1 51720U 22016G   22207.58334491  .00003573  00000-0  24255-3 0  9995,2 51720  53.2149 144.2807 0001665  46.7578  29.6298 15.08830805  1300,6917.908,95.438,540.925,538.622,0.0
51720.0,STARLINK-3526,PAYLOAD,2022-07-26 22:00:00,15.08854638,0.0001708,53.2152,142.7845,49.5589,38.4093,-0.0010327,-0.00016693,0.0,0 STARLINK-3526,1 51720U 22016G   22207.91667824 -.00016693  00000-0 -10327-2 0  9994,2 51720  53.2152 142.7845 0001708  49.5589  38.4093 15.08854638  1301,6917.8359999999975,95.437,540.882,538.519,0.0
51720.0,STARLINK-3526,PAYLOAD,2022-07-27 14:00:01,15.0884256,0.000171,53.2155,139.7917,49.0217,62.1549,0.00076634,0.0001193,0.0,0 STARLINK-3526,1 51720U 22016G   22208.58334491  .00011930  00000-0  76634-3 0  9990,2 51720  53.2155 139.7917 0001710  49.0217  62.1549 15.08842560  1307,6917.873000000001,95.437,540.9209999999998,538.555,0.0
51720.0,STARLINK-3526,PAYLOAD,2022-07-27 16:00:00,15.08829877,0.0001694,53.2154,139.4172,50.0524,154.0295,0.0027056999999999,0.00043025,0.0,0 STARLINK-3526,1 51720U 22016G   22208.66667824  .00043025  00000-0  27057-2 0  9992,2 51720  53.2154 139.4172 0001694  50.0524 154.0295 15.08829877 25053,6917.911,95.438,540.948,538.604,0.0
51720.0,STARLINK-3526,PAYLOAD,2022-07-27 22:00:00,15.08871532,0.0001764,53.2157,138.2956,51.3639,71.4117,-0.001295,-0.00020857,0.0,0 STARLINK-3526,1 51720U 22016G   22208.91667824 -.00020857  00000-0 -12950-2 0  9996,2 51720  53.2157 138.2956 0001764  51.3639  71.4117 15.08871532  1304,6917.784000000002,95.436,540.869,538.429,0.0
51720.0,STARLINK-3526,PAYLOAD,2022-07-28 08:00:01,15.08871647,0.0001851999999999,53.2154,136.4261,45.397,181.9027,-0.0018421,-0.00029511,0.0,0 STARLINK-3526,1 51720U 22016G   22209.33334491 -.00029511  00000-0 -18421-2 0  9999,2 51720  53.2154 136.4261 0001852  45.3970 181.9027 15.08871647 25152,6917.784000000002,95.436,540.93,538.367,0.0
51720.0,STARLINK-3526,PAYLOAD,2022-07-28 14:00:01,15.08838871,0.0001641,53.2157,135.3025,49.0816,96.9476,-2.0789e-05,-6.19e-06,0.0,0 STARLINK-3526,1 51720U 22016G   22209.58334491 -.00000619  00000-0 -20789-4 0  9996,2 51720  53.2157 135.3025 0001641  49.0816  96.9476 15.08838871  1303,6917.884,95.438,540.884,538.614,0.0
51720.0,STARLINK-3526,PAYLOAD,2022-07-28 22:00:00,15.08859883,0.0001681,53.2159,133.8067,50.6131,107.007,-0.0014204,-0.00022835,0.0,0 STARLINK-3526,1 51720U 22016G   22209.91667824 -.00022835  00000-0 -14204-2 0  9999,2 51720  53.2159 133.8067 0001681  50.6131 107.0070 15.08859883  1306,6917.82,95.436,540.8480000000002,538.5219999999998,0.0
